NORAD_CAT_ID,OBJECT_NAME,OBJECT_TYPE,EPOCH,MEAN_MOTION,ECCENTRICITY,INCLINATION,RA_OF_ASC_NODE,ARG_OF_PERICENTER,MEAN_ANOMALY,BSTAR,MEAN_MOTION_DOT,MEAN_MOTION_DDOT,TLE_LINE0,TLE_LINE1,TLE_LINE2,SEMIMAJOR_AXIS,PERIOD,APOGEE,PERIGEE,DECAYED
49143.0,STARLINK-3109,PAYLOAD,2022-07-20 20:18:46,14.96716508,0.0003231,69.9993,22.1777,251.4635,108.6172,-8.1667e-05,-1.026e-05,0.0,0 STARLINK-3109,1 49143U 21082P   22201.84636863 -.00001026  00000-0 -81667-4 0  9998,2 49143  69.9993  22.1777 0003231 251.4635 108.6172 14.96716508 48698,6955.187,96.211,579.299,574.805,0.0
49143.0,STARLINK-3109,PAYLOAD,2022-07-20 23:31:15,14.96704386,0.0003239,69.9993,21.8415,252.9118,107.1685,0.00017783,1.944e-05,0.0,0 STARLINK-3109,1 49143U 21082P   22201.98003503  .00001944  00000-0  17783-3 0  9996,2 49143  69.9993  21.8415 0003239 252.9118 107.1685 14.96704386 47595,6955.225,96.211,579.342,574.837,0.0
49143.0,STARLINK-3109,PAYLOAD,2022-07-21 05:56:12,14.96705433,0.0003234,69.9993,21.1692,252.9097,107.1707,0.0002106999999999,2.32e-05,0.0,0 STARLINK-3109,1 49143U 21082P   22202.24736397  .00002320  00000-0  21070-3 0  9993,2 49143  69.9993  21.1692 0003234 252.9097 107.1707 14.96705433 48754,6955.221,96.211,579.336,574.837,0.0
49143.0,STARLINK-3109,PAYLOAD,2022-07-21 18:46:06,14.96711798,0.0003242,69.9994,19.8246,253.1216,106.9587,0.0001992,2.189e-05,0.0,0 STARLINK-3109,1 49143U 21082P   22202.78201972  .00002189  00000-0  19920-3 0  9992,2 49143  69.9994  19.8246 0003242 253.1216 106.9587 14.96711798 48832,6955.2019999999975,96.211,579.321,574.812,0.0
49143.0,STARLINK-3109,PAYLOAD,2022-07-21 21:58:35,14.96713659,0.0003216,69.9994,19.4882,252.795,107.2856,0.00021924,2.419e-05,0.0,0 STARLINK-3109,1 49143U 21082P   22202.91568289  .00002419  00000-0  21924-3 0  9997,2 49143  69.9994  19.4882 0003216 252.7950 107.2856 14.96713659 48858,6955.196,96.211,579.298,574.8240000000002,0.0
49143.0,STARLINK-3109,PAYLOAD,2022-07-22 12:24:43,14.96722326,0.000321,69.9994,17.9754,252.6559,107.4248,0.00020888,2.3e-05,0.0,0 STARLINK-3109,1 49143U 21082P   22203.51716560  .00002300  00000-0  20888-3 0  9998,2 49143  69.9994  17.9754 0003210 252.6559 107.4248 14.96722326 48945,6955.169,96.21,579.2669999999998,574.8009999999998,0.0
49143.0,STARLINK-3109,PAYLOAD,2022-07-23 04:27:05,14.96729234,0.0003211,69.9996,16.2944,252.5724,107.5083,0.00021683,2.392e-05,0.0,0 STARLINK-3109,1 49143U 21082P   22204.18547772  .00002392  00000-0  21683-3 0  9994,2 49143  69.9996  16.2944 0003211 252.5724 107.5083 14.96729234 47924,6955.148,96.21,579.246,574.779,0.0
49143.0,STARLINK-3109,PAYLOAD,2022-07-23 12:28:16,14.96729697,0.0003176,69.9997,15.454,252.4489,107.6322,0.0001706999999999,1.863e-05,0.0,0 STARLINK-3109,1 49143U 21082P   22204.51963572  .00001863  00000-0  17070-3 0  9998,2 49143  69.9997  15.4540 0003176 252.4489 107.6322 14.96729697 49095,6955.146,96.21,579.22,574.802,0.0
49143.0,STARLINK-3109,PAYLOAD,2022-07-23 20:29:28,14.96719685,0.0003319,69.9995,14.6134,252.5867,107.4929,2.5102e-05,1.96e-06,0.0,0 STARLINK-3109,1 49143U 21082P   22204.85380242  .00000196  00000-0  25102-4 0  9996,2 49143  69.9995  14.6134 0003319 252.5867 107.4929 14.96719685 49146,6955.177,96.21,579.351,574.734,0.0
49143.0,STARLINK-3109,PAYLOAD,2022-07-24 14:08:04,14.96726597,0.0003371,69.9994,12.7643,252.4369,107.6421,-7.326e-06,-1.76e-06,0.0,0 STARLINK-3109,1 49143U 21082P   22205.58894578 -.00000176  00000-0 -73260-5 0  9998,2 49143  69.9994  12.7643 0003371 252.4369 107.6421 14.96726597 49254,6955.156,96.21,579.365,574.6759999999998,0.0
49143.0,STARLINK-3109,PAYLOAD,2022-07-24 20:33:01,14.9672733,0.0003362,69.9996,12.092,252.424,107.6551,-5.6113e-06,-1.56e-06,0.0,0 STARLINK-3109,1 49143U 21082P   22205.85627068 -.00000156  00000-0 -56113-5 0  9992,2 49143  69.9996  12.0920 0003362 252.4240 107.6551 14.96727330 49299,6955.153,96.21,579.357,574.68,0.0
49143.0,STARLINK-3109,PAYLOAD,2022-07-25 10:59:10,14.9672057,0.0003272,70.0001,10.5796,250.382,109.6985,-9.4162e-05,-1.169e-05,0.0,0 STARLINK-3109,1 49143U 21082P   22206.45776154 -.00001169  00000-0 -94162-4 0  9990,2 49143  70.0001  10.5796 0003272 250.3820 109.6985 14.96720570 49386,6955.174,96.21,579.315,574.764,0.0
49143.0,STARLINK-3109,PAYLOAD,2022-07-25 17:24:08,14.96710239,0.0003286999999999,69.9998,9.907,251.3301,108.7501,-2.603300000000001e-05,-3.9e-06,0.0,0 STARLINK-3109,1 49143U 21082P   22206.72509406 -.00000390  00000-0 -26033-4 0  9991,2 49143  69.9998   9.9070 0003287 251.3301 108.7501 14.96710239 48302,6955.206,96.211,579.3580000000002,574.785,0.0
49143.0,STARLINK-3109,PAYLOAD,2022-07-26 12:38:59,14.96712473,0.0003363,69.9999,7.8895,251.6079,108.4713,-2.8363000000000013e-05,-4.16e-06,0.0,0 STARLINK-3109,1 49143U 21082P   22207.52707782 -.00000416  00000-0 -28363-4 0  9994,2 49143  69.9999   7.8895 0003363 251.6079 108.4713 14.96712473 49546,6955.199000000001,96.211,579.403,574.725,0.0
49143.0,STARLINK-3109,PAYLOAD,2022-07-26 17:27:42,14.96713429,0.000337,69.9999,7.3853,251.6943,108.3849,-5.1601e-05,-6.82e-06,0.0,0 STARLINK-3109,1 49143U 21082P   22207.72757404 -.00000682  00000-0 -51601-4 0  9998,2 49143  69.9999   7.3853 0003370 251.6943 108.3849 14.96713429 48453,6955.196999999999,96.211,579.405,574.7180000000002,0.0
49143.0,STARLINK-3109,PAYLOAD,2022-07-26 20:40:10,14.96714163,0.0003364,69.9999,7.0491,251.7214,108.3578,-4.134e-05,-5.65e-06,0.0,0 STARLINK-3109,1 49143U 21082P   22207.86123745 -.00000565  00000-0 -41340-4 0  9997,2 49143  69.9999   7.0491 0003364 251.7214 108.3578 14.96714163 49594,6955.194,96.211,579.399,574.72,0.0
49143.0,STARLINK-3109,PAYLOAD,2022-07-27 12:42:33,14.96710767,0.0003426,69.9999,5.3686,252.074,108.0044,9.6668e-05,1.015e-05,0.0,0 STARLINK-3109,1 49143U 21082P   22208.52955642  .00001015  00000-0  96668-4 0  9992,2 49143  69.9999   5.3686 0003426 252.0740 108.0044 14.96710767 49690,6955.205,96.211,579.453,574.687,0.0
49143.0,STARLINK-3109,PAYLOAD,2022-07-27 19:07:32,14.96694872,0.0003748,69.9986,4.6961,251.2879,108.7872,-8.0237e-05,-1.01e-05,0.0,0 STARLINK-3109,1 49143U 21082P   22208.79689905 -.00001010  00000-0 -80237-4 0  9999,2 49143  69.9986   4.6961 0003748 251.2879 108.7872 14.96694872 49734,6955.254,96.212,579.726,574.512,0.0
49143.0,STARLINK-3109,PAYLOAD,2022-07-28 03:08:44,14.96684305,0.0003596,70.0,3.8559,252.5369,107.5396,-0.00022483,-2.662e-05,0.0,0 STARLINK-3109,1 49143U 21082P   22209.13107516 -.00002662  00000-0 -22483-3 0  9993,2 49143  70.0000   3.8559 0003596 252.5369 107.5396 14.96684305 48666,6955.2869999999975,96.213,579.653,574.651,0.0
49143.0,STARLINK-3109,PAYLOAD,2022-07-28 11:09:54,14.96713175,0.0003227,70.0001,3.0154,253.0047,107.0757,9.7007e-05,1.019e-05,0.0,0 STARLINK-3109,1 49143U 21082P   22209.46521323  .00001019  00000-0  97007-4 0  9993,2 49143  70.0001   3.0154 0003227 253.0047 107.0757 14.96713175 49834,6955.196999999999,96.211,579.307,574.818,0.0
49143.0,STARLINK-3109,PAYLOAD,2022-07-28 20:47:20,14.96712685,0.0003401,70.0002,2.0068,251.6703,108.4085,8.3937e-05,8.69e-06,0.0,0 STARLINK-3109,1 49143U 21082P   22209.86620706  .00000869  00000-0  83937-4 0  9991,2 49143  70.0002   2.0068 0003401 251.6703 108.4085 14.96712685 48771,6955.199000000001,96.211,579.429,574.698,0.0
49143.0,STARLINK-3109,PAYLOAD,2022-07-29 09:37:14,14.96715797,0.0003509999999999,70.0003,0.6629999999999999,249.954,110.1241,8.9253e-05,9.3e-06,0.0,0 STARLINK-3109,1 49143U 21082P   22210.40086118  .00000930  00000-0  89253-4 0  9992,2 49143  70.0003   0.6630 0003510 249.9540 110.1241 14.96715797 49975,6955.189,96.211,579.495,574.613,0.0
49143.0,STARLINK-3109,PAYLOAD,2022-07-29 16:02:11,14.96717034,0.0003512,70.0004,359.9907,249.6354,110.4427,9.8546e-05,1.037e-05,0.0,0 STARLINK-3109,1 49143U 21082P   22210.66818808  .00001037  00000-0  98546-4 0  9993,2 49143  70.0004 359.9907 0003512 249.6354 110.4427 14.96717034 50017,6955.185,96.211,579.493,574.6080000000002,0.0
49143.0,STARLINK-3109,PAYLOAD,2022-07-29 19:14:40,14.96717138,0.0003506999999999,70.0004,359.6544,249.668,110.4101,9.7439e-05,1.024e-05,0.0,0 STARLINK-3109,1 49143U 21082P   22210.80185201  .00001024  00000-0  97439-4 0  9999,2 49143  70.0004 359.6544 0003507 249.6680 110.4101 14.96717138 50033,6955.185,96.211,579.489,574.611,0.0
49143.0,STARLINK-3109,PAYLOAD,2022-07-30 16:05:45,14.9672462,0.000345,70.0003,357.4689,250.2911,109.7875,8.449899999999999e-05,8.76e-06,0.0,0 STARLINK-3109,1 49143U 21082P   22211.67066371  .00000876  00000-0  84499-4 0  9997,2 49143  70.0003 357.4689 0003450 250.2911 109.7875 14.96724620 49042,6955.1619999999975,96.21,579.4259999999998,574.627,0.0
49143.0,STARLINK-3109,PAYLOAD,2022-07-30 19:18:13,14.96724834,0.0003447,70.0003,357.1326,250.139,109.9397,8.245299999999999e-05,8.52e-06,0.0,0 STARLINK-3109,1 49143U 21082P   22211.80432671  .00000852  00000-0  82453-4 0  9994,2 49143  70.0003 357.1326 0003447 250.1390 109.9397 14.96724834 50188,6955.161,96.21,579.424,574.629,0.0
49143.0,STARLINK-3109,PAYLOAD,2022-07-31 16:09:18,14.96730087,0.0003471,70.0002,354.9472,250.1457,109.9327,7.9183e-05,8.15e-06,0.0,0 STARLINK-3109,1 49143U 21082P   22212.67313213  .00000815  00000-0  79183-4 0  9995,2 49143  70.0002 354.9472 0003471 250.1457 109.9327 14.96730087 50310,6955.145,96.21,579.424,574.596,0.0
49143.0,STARLINK-3109,PAYLOAD,2022-08-01 09:47:56,14.96721571,0.0003364,70.0006,353.0984,248.7763,111.3036,-5.5936e-05,-7.32e-06,0.0,0 STARLINK-3109,1 49143U 21082P   22213.40828708 -.00000732  00000-0 -55936-4 0  9997,2 49143  70.0006 353.0984 0003364 248.7763 111.3036 14.96721571 50420,6955.170999999999,96.21,579.376,574.697,0.0
49143.0,STARLINK-3109,PAYLOAD,2022-08-02 11:27:44,14.96722678,0.0003282,70.0008,350.409,248.4193,111.6616,-6.371e-05,-8.21e-06,0.0,0 STARLINK-3109,1 49143U 21082P   22214.47759350 -.00000821  00000-0 -63710-4 0  9999,2 49143  70.0008 350.4090 0003282 248.4193 111.6616 14.96722678 50587,6955.168000000002,96.21,579.316,574.75,0.0
